[{"OBJECT_NAME":"STARLINK-31415","OBJECT_ID":"2024-064X","EPOCH":"2026-03-09T09:06:37.998144","MEAN_MOTION":15.27551982,"ECCENTRICITY":0.00016163,"INCLINATION":43.0031,"RA_OF_ASC_NODE":58.3276,"ARG_OF_PERICENTER":276.0398,"MEAN_ANOMALY":84.0269,"EPHEMERIS_TYPE":0,"CLASSIFICATION_TYPE":"U","NORAD_CAT_ID":59419,"ELEMENT_SET_NO":999,"REV_AT_EPOCH":10917,"BSTAR":-0.00011879545,"MEAN_MOTION_DOT":-3.527e-5,"MEAN_MOTION_DDOT":0},{"OBJECT_NAME":"CP8 (IPEX)","OBJECT_ID":"2013-072K","EPOCH":"2026-03-09T13:09:38.394720","MEAN_MOTION":15.06461805,"ECCENTRICITY":0.0159394,"INCLINATION":120.4656,"RA_OF_ASC_NODE":280.3913,"ARG_OF_PERICENTER":252.2911,"MEAN_ANOMALY":106.0698,"EPHEMERIS_TYPE":0,"CLASSIFICATION_TYPE":"U","NORAD_CAT_ID":39471,"ELEMENT_SET_NO":999,"REV_AT_EPOCH":10021,"BSTAR":0.00057825,"MEAN_MOTION_DOT":0.0001114,"MEAN_MOTION_DDOT":0}]
